{"type":"FeatureCollection","features":[{"type":"Feature","properties":{"OBJECTID":1,"CODIGO_UPL":"UPL13","NOMBRE":"Tintal","ACTO_ADMINISTRATIVO":"DEC","NUMERO_ACTO_ADMINISTRATIVO":"555","FECHA_ACTO_ADMINISTRATIVO":1640736000000,"NORMATIVA":"En el marco del Decreto 555 del 29 de diciembre de 2021 - Por el cual se adopta la revisión general del Plan de Ordenamiento Territorial de Bogotá","VOCACION":"Urbano-Rural","OBSERVACION":"Que mediante Resolución 2050 del 23 de noviembre de 2022 Por la cual se realiza la distribución de las localidades y territorios a cargo de las Subdirecciones de Planeamiento Local","AREA_HA":1284.99371032,"SECTOR":"Sector Sur Occidente","ESCALA_CAPTURA":" ","FECHA_CAPTURA":1669161600000,"RESPONSABLE":"553","RULEID":1,"SHAPE_Length":0.1541742404758206,"SHAPE_Area":0.0010464529446692172},"geometry":{"type":"Polygon","coordinates":[[[-74.16956596732314,4.656317873712112],[-74.1695479506406,4.656308973122691],[-74.1694867040137,4.656278717262126],[-74.16943626651323,4.656276593719724],[-74.16938501098593,4.656274434946454],[-74.16901255548419,4.656258750760628],[-74.16795029641895,4.6562881512844],[-74.16765389988905,4.656381716145347],[-74.16721588322469,4.656670988018277],[-74.16699751752685,4.6573772454654545],[-74.16681193984385,4.657854080758511],[-74.16670113990324,4.658410626719785],[-74.16670113720085,4.658410642087063],[-74.16672613072012,4.658646600757095],[-74.16673753934128,4.658754305848163],[-74.16673754114356,4.65875432121527],[-74.16666043256936,4.659218950939817],[-74.16652575265886,4.659615243809412],[-74.16637251153753,4.6597709052878145],[-74.16620746604093,4.659875044732814],[-74.16593890379664,4.6598538057805285],[-74.16564105967166,4.659718038200197],[-74.16564061099143,4.659717111665657],[-74.16551384627138,4.659455263924087],[-74.16523771138122,4.659135994119708],[-74.16523739875572,4.659135668706597],[-74.16488707096568,4.658771439248824],[-74.16448634417799,4.6586363960967105],[-74.16404048157926,4.658564630206058],[-74.1639689665729,4.658615308213427],[-74.16393345501075,4.658640472294223],[-74.16334660756047,4.659056026054657],[-74.16315399552138,4.659309403661041],[-74.16300201734776,4.659682826382777],[-74.162947970429,4.660181714791747],[-74.16297374283107,4.660645799332485],[-74.16298852428446,4.661195851392051],[-74.16297538077163,4.661855008816474],[-74.16298376525617,4.662267568701395],[-74.16286592971665,4.662617849497622],[-74.16275917571738,4.662905125742725],[-74.16253232778257,4.663170164871872],[-74.16228791203446,4.663366414779375],[-74.1619619591857,4.663305402784829],[-74.16173321587115,4.663261021193591],[-74.16123509654972,4.663063515495594],[-74.16085698103882,4.662882459773698],[-74.1603190421049,4.66270818388665],[-74.15912992185224,4.662532106190383],[-74.15881631370246,4.66260849261613],[-74.15857216807956,4.662739192342883],[-74.15845078091024,4.662674835109556],[-74.15827130276352,4.662567069429997],[-74.15816044601769,4.662474556700772],[-74.15802284634469,4.662430419169823],[-74.15787792434907,4.662349771267259],[-74.15772554196082,4.66221644045595],[-74.15761890924114,4.662091796739105],[-74.15758343503808,4.661995963432673],[-74.15743281347778,4.661823721179815],[-74.15729436794533,4.661715389645337],[-74.1570796253925,4.661530151323404],[-74.15695941083067,4.661600491115564],[-74.15685721150538,4.661645336576385],[-74.1567028612701,4.6617228785769385],[-74.15657124276896,4.661788696014298],[-74.15652197456558,4.661869558483545],[-74.15643976572994,4.662051690714122],[-74.15632961613738,4.662192860011544],[-74.15628105224738,4.662328666224539],[-74.15620961308036,4.662460231423097],[-74.15609221146178,4.6625694832790145],[-74.15603499290285,4.6627443401466735],[-74.15582482457779,4.662923435840526],[-74.15567948118411,4.662989466621184],[-74.1555235821445,4.662947870739401],[-74.15544341365609,4.6629259772286105],[-74.15537178775543,4.6629102177932396],[-74.15534487725421,4.662904297269449],[-74.155256403154,4.662951262083311],[-74.15516356879249,4.663014327158066],[-74.15506854889696,4.663086642347139],[-74.15499204135193,4.663183816777234],[-74.15492053060484,4.663308463024691],[-74.15483339734726,4.663463121426673],[-74.15474443107797,4.663652174157107],[-74.15472465422084,4.663897652321509],[-74.1546827042472,4.664015023225602],[-74.15464793665399,4.664155345284826],[-74.15456481093378,4.664266362801584],[-74.15442249466815,4.664208595796936],[-74.1543441572876,4.6641545008006915],[-74.15423921655292,4.664090564803928],[-74.15401264730002,4.663952525331638],[-74.15364432657236,4.663904431860374],[-74.15345034796894,4.663922934885818],[-74.1531923201382,4.663926183435706],[-74.15306034933155,4.663969121291075],[-74.1528895984066,4.664010293156139],[-74.15273127020168,4.66404665948329],[-74.15260489393779,4.664075687251966],[-74.15247059957647,4.664116366050223],[-74.15231800656295,4.664150404570137],[-74.15214035722596,4.664193977194941],[-74.15194680125933,4.664242140144324],[-74.15180497740141,4.664223355363617],[-74.15166096981949,4.664218269902506],[-74.15140097084657,4.664249059297049],[-74.15113273765166,4.664172222788864],[-74.15090560893407,4.664087971744834],[-74.15073753095106,4.663987054191239],[-74.15053496566566,4.663858877334576],[-74.15024970040639,4.663699766848708],[-74.14995859138526,4.663618693204739],[-74.1496550953675,4.663462125369222],[-74.14942916403459,4.663293059106877],[-74.1490453611874,4.663105275287819],[-74.14861721513262,4.662842635448158],[-74.14839374740785,4.662694188801936],[-74.14813170881956,4.6625623359441875],[-74.14788818242613,4.662453013859874],[-74.14754562265102,4.66227179812995],[-74.14730934526119,4.662194466556798],[-74.14703850781956,4.662090158404283],[-74.14681426501033,4.6620563273502285],[-74.1466449214102,4.6620332333178],[-74.14648268695527,4.662028429731265],[-74.14635923338295,4.662018541413204],[-74.14628568342562,4.661982736905202],[-74.14618214736765,4.6619222121044],[-74.1461247148261,4.661897707843934],[-74.14607129320626,4.661825108119672],[-74.14601822473071,4.661784500922238],[-74.14592426273242,4.661760489266101],[-74.14580833991971,4.661803213349003],[-74.14562660685789,4.661887956448311],[-74.14552926358374,4.66195334972025],[-74.14539694316954,4.661968815155603],[-74.14529840631542,4.6619425417300135],[-74.1452519524471,4.661881243115317],[-74.14520613578634,4.66169162545134],[-74.14506670666697,4.661527713158534],[-74.14501575012008,4.661441978992627],[-74.14494881584659,4.661351442109435],[-74.14488159955351,4.661281526987011],[-74.1448048821726,4.661227501433757],[-74.14468332868188,4.661259703361452],[-74.14460829917294,4.661370576908212],[-74.14456050521721,4.661491196894019],[-74.14453136569034,4.66158914591324],[-74.14448350413119,4.6617120275710136],[-74.14435899361843,4.66178081040465],[-74.14419837711415,4.661826076884267],[-74.14408498877873,4.661780524736798],[-74.143989547552,4.6617536165670685],[-74.14389178555376,4.661731227211817],[-74.14376368684833,4.661744996549089],[-74.14362819779353,4.661788356572799],[-74.14349946377604,4.661836446960251],[-74.143414299023,4.661876277244744],[-74.14334018391196,4.661936796230123],[-74.14327507704667,4.66199979025987],[-74.14319167159852,4.662071609440318],[-74.14312642502051,4.662143784856028],[-74.14303492356379,4.662281845292682],[-74.14289154922011,4.662384738249614],[-74.14277597819,4.662462843264677],[-74.14264471142315,4.662526893587767],[-74.14254631236923,4.662669474564666],[-74.14237851513627,4.662730630184626],[-74.14219650028781,4.662823635381585],[-74.14205397108276,4.66287836401068],[-74.1418856816735,4.6629669895868915],[-74.14171619711345,4.662996154314953],[-74.1415196139348,4.663008580400913],[-74.14146090831497,4.663005348360116],[-74.14127326961841,4.662995016646164],[-74.14108970991754,4.662916200905215],[-74.1409449311576,4.662840280774731],[-74.14085779792242,4.6627333592844025],[-74.14078734586491,4.662656240184674],[-74.14073012278004,4.662593598820592],[-74.14058767140233,4.662387172036858],[-74.14041136115787,4.662154897434789],[-74.14030374962391,4.661914713859517],[-74.14023428444102,4.661711889882895],[-74.14010330181594,4.661629401614789],[-74.1399999080702,4.6615380874320635],[-74.13988236886809,4.661467322551175],[-74.13982972496518,4.661347266892278],[-74.13981459486843,4.6611705729158075],[-74.13980052001381,4.661060404105058],[-74.13981699382742,4.6609071570379115],[-74.1397873630923,4.660773754801653],[-74.13973767463636,4.6606147841959],[-74.13956031005256,4.660572691907646],[-74.13938449101732,4.6605741020935625],[-74.139279619163,4.660565481864978],[-74.13903306712496,4.660430523418597],[-74.1388678812458,4.660219080021932],[-74.13869509131388,4.66004640864287],[-74.13855059556693,4.659954458305037],[-74.13844065820984,4.65984704178652],[-74.13824942933127,4.659685598022179],[-74.1380984590952,4.659572955236968],[-74.13799788255318,4.659449718764904],[-74.1379445350583,4.659366315335319],[-74.13779870237471,4.659219351445017],[-74.13764583167273,4.6590837545824115],[-74.13749683082159,4.658989472686528],[-74.1374147640388,4.6589811372180066],[-74.13717644742258,4.65890126120803],[-74.13712478611518,4.658852248445498],[-74.13707798272196,4.658789536410438],[-74.13704582084142,4.658669832447799],[-74.13712099278331,4.658552039075744],[-74.13717674008245,4.6583696981128355],[-74.13718150660543,4.658317340594863],[-74.13719089097697,4.658214262606748],[-74.13713353230747,4.65810098357241],[-74.1371121008903,4.658072508916348],[-74.13699890786461,4.657919524999954],[-74.13691063282107,4.657794556570252],[-74.13683202823859,4.657731685887882],[-74.13682982283126,4.657729915022685],[-74.13682079579604,4.65772270139081],[-74.13666746235447,4.657600060593609],[-74.13656126659117,4.657594514268737],[-74.1364713052422,4.6575898151611455],[-74.13645617000986,4.657584196905248],[-74.1363711433429,4.657552633419925],[-74.13632842685763,4.65753677573872],[-74.13631183427503,4.657508989936957],[-74.13622194174195,4.657358457741395],[-74.13611587500753,4.657159517963294],[-74.13606407963431,4.656991365650413],[-74.13599834703228,4.656834444679475],[-74.13590200772643,4.656684617422911],[-74.13588059899735,4.656651321972959],[-74.1357525771981,4.656399344448403],[-74.13572580404588,4.656334786765626],[-74.13563870462514,4.656124768413974],[-74.1355661184462,4.656002111449709],[-74.13555227633714,4.655978721572524],[-74.13550273705914,4.655810638852472],[-74.13550024161128,4.655806128111578],[-74.13536112541146,4.655553861975932],[-74.13526140106342,4.65538752576623],[-74.13521255420369,4.6553060512191],[-74.13508903641241,4.655060993362099],[-74.13501894039541,4.654892489931854],[-74.13488507644911,4.654718264347309],[-74.13486694908647,4.654675699834172],[-74.1348481172439,4.654631478371414],[-74.13477106112276,4.654450539182278],[-74.13473987104913,4.654328251632933],[-74.13470061479427,4.654174340219527],[-74.1346511279512,4.654068319808971],[-74.13462739621713,4.654017477739558],[-74.13459061262154,4.653938672710751],[-74.13447886734969,4.653803597421643],[-74.13441177642414,4.653722499448179],[-74.13429951858967,4.653484431869742],[-74.13424505331034,4.6532828631041525],[-74.13422238798,4.653198980824698],[-74.13412097023843,4.652997851444184],[-74.13401314854963,4.652766777742329],[-74.13380599308385,4.652488987081085],[-74.13379679957114,4.652476660674893],[-74.13378316137141,4.652443435806845],[-74.13364140488682,4.652098128574266],[-74.13349459723014,4.65174961129577],[-74.1332686115723,4.651232308160672],[-74.13326883020886,4.650959711695464],[-74.13326714587532,4.650797000057366],[-74.13321682891689,4.650544106897087],[-74.13307093381832,4.650273484571983],[-74.13288315863855,4.650047915091363],[-74.13270213683444,4.649955326441557],[-74.13247860525007,4.649811606863125],[-74.1323835934329,4.649633497293507],[-74.13235558360424,4.649539007004137],[-74.13237508669806,4.649340069150583],[-74.13239543042516,4.649225945173441],[-74.13238621223292,4.649099744753414],[-74.13231675331707,4.648894591358328],[-74.13220977175843,4.648876649422732],[-74.13200728166652,4.648838651405413],[-74.13193532517226,4.648828162302834],[-74.13175672042775,4.648802129370722],[-74.1314650555604,4.648769426451963],[-74.13125059461697,4.648887002901688],[-74.13101572471027,4.6489996342371],[-74.13085637855158,4.648971594737134],[-74.1307547754397,4.648951636895845],[-74.13061292658625,4.648923776715719],[-74.13026481662405,4.648855684246314],[-74.1299305033263,4.648778626571243],[-74.1296747285931,4.648709176449472],[-74.12960561738817,4.648690410626102],[-74.12929474198017,4.648579523849719],[-74.1291746704191,4.648526977987842],[-74.12900864317515,4.648361296395308],[-74.12897831217015,4.648269136291219],[-74.12898522643798,4.648202038182433],[-74.12898655017813,4.648189194012787],[-74.12893313234929,4.64811256768246],[-74.12891195005136,4.648018219344976],[-74.12878519321634,4.647958679399721],[-74.12859887318484,4.647767794210495],[-74.12856814797982,4.647734147561607],[-74.1285342840178,4.6477016163033795],[-74.1283254710774,4.647487695146879],[-74.12808491057461,4.647274976250003],[-74.1279136748825,4.647143615372613],[-74.12718636307483,4.646569300115573],[-74.12648811972593,4.646032132694245],[-74.12595301971714,4.645559799651039],[-74.1256551046468,4.645238392899671],[-74.12550380180079,4.6447568957238445],[-74.12527571373732,4.644228077202229],[-74.12511786602198,4.643728216924444],[-74.12498148263091,4.64330653434547],[-74.12483608971746,4.642880120191535],[-74.12474678536307,4.642637957760826],[-74.12466684085587,4.642382236380399],[-74.12449822277614,4.6419737593800505],[-74.12444115482316,4.641716132258637],[-74.12433382664892,4.641588162310427],[-74.12421502642798,4.641464642120411],[-74.1238894594419,4.641023531045448],[-74.12381232566918,4.640868655958286],[-74.12363468862634,4.640714341663966],[-74.12310167211575,4.641027805346937],[-74.1230224308137,4.64086141922337],[-74.12292439420162,4.640724481296047],[-74.12224713427258,4.640162592763716],[-74.1221255193326,4.640066472612091],[-74.12162336224685,4.639672597406218],[-74.1214904866207,4.639569343688095],[-74.12083715506793,4.639072073411228],[-74.12072855870946,4.6390151477992845],[-74.12031346175377,4.6387305260679454],[-74.12003855907938,4.638526208035557],[-74.11937699242537,4.638106689232757],[-74.11895703726526,4.637842616883347],[-74.11853504434828,4.6375624439745025],[-74.11829863986145,4.637411585408302],[-74.1184463780998,4.637270422561016],[-74.11907716456392,4.636667705322054],[-74.11924559682086,4.636500341253338],[-74.11939023923208,4.636312356255075],[-74.11952362203687,4.636108056329476],[-74.11963040170463,4.635855168122077],[-74.12241484455649,4.629032124434843],[-74.12613199081403,4.6293735031750884],[-74.12624924217289,4.629384255412049],[-74.12656954497965,4.629413647407205],[-74.12693214476326,4.629445437706295],[-74.12729031138178,4.629476807362664],[-74.12851708794682,4.62958422979807],[-74.1306817398887,4.629773814559826],[-74.13159443315124,4.629887471718689],[-74.13410969558504,4.630118333974963],[-74.13647251507479,4.630349889302238],[-74.13777406440073,4.630478942715854],[-74.13784500838369,4.630486006149454],[-74.13922855166567,4.6306043262151775],[-74.14114994773377,4.630762834772895],[-74.14330957957503,4.631003614875965],[-74.14498921892925,4.63116415838067],[-74.14662895284243,4.63132469789889],[-74.14840667756096,4.6314166588089165],[-74.14870133687089,4.63143189043376],[-74.1487952237224,4.631437963779831],[-74.1488371127702,4.63144069899721],[-74.14996611182346,4.631514387134587],[-74.15064475543244,4.63155022875867],[-74.15152415364633,4.6315966725837825],[-74.15508929115498,4.631828144549502],[-74.1551403980481,4.631831463233652],[-74.15517193936569,4.6320349200418605],[-74.15518234299333,4.632207149287865],[-74.15520314981012,4.63229065402038],[-74.15526556592295,4.6324785417341445],[-74.15529972667395,4.632576479650027],[-74.1553383847849,4.632687304202761],[-74.15535399014573,4.632786466291634],[-74.15541640589419,4.633010887080616],[-74.15545281614902,4.633177896592258],[-74.15546321940656,4.633313592737409],[-74.15545801928215,4.63343885118087],[-74.15545632756078,4.633449519605904],[-74.15542161033028,4.633668489886418],[-74.15538914169389,4.633742956689446],[-74.15534879056179,4.633835500756447],[-74.15530197940717,4.633945102414316],[-74.155284696259,4.633966604856994],[-74.15517194542525,4.634106893663329],[-74.15511993094509,4.634159083776183],[-74.15473817413482,4.634546583100757],[-74.15429046130714,4.63500102847911],[-74.15386160031392,4.635418308425926],[-74.15389450496048,4.635494659214373],[-74.1540695328618,4.635900787094101],[-74.15431645355619,4.636409347805682],[-74.15456337460415,4.636917906615167],[-74.1549767648001,4.637689614591807],[-74.15512219721643,4.63796110570479],[-74.15516067141067,4.638038555562673],[-74.15616187099096,4.640054020083085],[-74.15630051062328,4.640317198313767],[-74.15628722354364,4.640327463737151],[-74.15622549884284,4.640375203917131],[-74.1561897456101,4.640402816419112],[-74.15630665104959,4.640578096785134],[-74.1563149772445,4.640590578393244],[-74.15677018865637,4.6412729329508124],[-74.15697774773145,4.641714877626498],[-74.15717883030197,4.6420190406818165],[-74.15747718055587,4.6424405030691105],[-74.15788814585636,4.642886823923334],[-74.15931944807346,4.644383551205351],[-74.15981923657978,4.644967367997424],[-74.16033866461765,4.64555499870329],[-74.16124461868498,4.646572011969795],[-74.1638165254355,4.649260293659836],[-74.16445356919706,4.649926158699543],[-74.16459623035985,4.649846358122943],[-74.16782842193646,4.653482986744109],[-74.16797820253515,4.65367662509658],[-74.16892790777786,4.654743635959505],[-74.17031385971461,4.656300768787503],[-74.17085927091608,4.656707674191807],[-74.17124385343845,4.657048126554685],[-74.17136043684332,4.657258548926791],[-74.17090871792823,4.657169702973988],[-74.17047888931171,4.656943094291421],[-74.16987626101059,4.656471158653119],[-74.16956596732314,4.656317873712112]]]}},{"type":"Feature","properties":{"OBJECTID":8,"CODIGO_UPL":"UPL18","NOMBRE":"Kennedy","ACTO_ADMINISTRATIVO":"DEC","NUMERO_ACTO_ADMINISTRATIVO":"555","FECHA_ACTO_ADMINISTRATIVO":1640736000000,"NORMATIVA":"En el marco del Decreto 555 del 29 de diciembre de 2021 - Por el cual se adopta la revisión general del Plan de Ordenamiento Territorial de Bogotá","VOCACION":"Urbano","OBSERVACION":"Que mediante Resolución 2050 del 23 de noviembre de 2022 Por la cual se realiza la distribución de las localidades y territorios a cargo de las Subdirecciones de Planeamiento Local","AREA_HA":1392.50250571,"SECTOR":"Sector Sur Occidente","ESCALA_CAPTURA":" ","FECHA_CAPTURA":1669161600000,"RESPONSABLE":"553","RULEID":1,"SHAPE_Length":0.14084407822928324,"SHAPE_Area":0.0011339553717098565},"geometry":{"type":"Polygon","coordinates":[[[-74.14920939661476,4.5951404619695495],[-74.14948734894915,4.5952520263772385],[-74.14966670164904,4.595372006880666],[-74.14972648646892,4.595611970032394],[-74.14973006743776,4.595647901116251],[-74.14971963041495,4.595654897733425],[-74.14969520907158,4.595711464305282],[-74.14967866912718,4.595770786080891],[-74.14967022497717,4.595831802726991],[-74.14967001264506,4.595893454814018],[-74.14967810599592,4.595954541896447],[-74.14969436179462,4.596013934037217],[-74.14971843141592,4.596070643220514],[-74.14974988966321,4.596123538606207],[-74.14978845637506,4.596171983813861],[-74.14984926306897,4.596262096482121],[-74.14994026018059,4.596319935285749],[-74.14998684941628,4.596489425644393],[-74.15009516021235,4.596651643422604],[-74.15023535058907,4.596793025883528],[-74.15043268819,4.596936387660605],[-74.15048828667102,4.5970760060117755],[-74.15056499762835,4.597302628498426],[-74.15070779195537,4.597499096641684],[-74.15104961457445,4.597737937084389],[-74.15120592418674,4.597906792088509],[-74.15149665170287,4.598405163835025],[-74.15196916806809,4.598714414271342],[-74.15210176578739,4.599054707830362],[-74.15217783672642,4.59924993325086],[-74.15216010138096,4.599758615701887],[-74.15876581252883,4.597029239012443],[-74.16047408015726,4.59628389128153],[-74.16068091797024,4.596193635976249],[-74.16207703471497,4.5959406890992796],[-74.1622198128124,4.597493113856899],[-74.16213497280751,4.600475081118475],[-74.1619651702897,4.6019575576345915],[-74.16186334826074,4.603269553133714],[-74.16172746601927,4.604803087436267],[-74.16161811232882,4.606040508030333],[-74.16158596064014,4.607006460977118],[-74.16147975030566,4.608285353704673],[-74.16146598067098,4.608451152780447],[-74.16144163454584,4.6088093423422265],[-74.16134600594631,4.610216817948867],[-74.16126607374565,4.611902255777636],[-74.16154598668783,4.613266577025627],[-74.16198565625166,4.614182948024052],[-74.16202654706552,4.614268116332539],[-74.16206589104951,4.61435010638661],[-74.1625596824465,4.615170644539546],[-74.1630057584116,4.616035532084425],[-74.16400559120882,4.617560362976917],[-74.16468547697849,4.618764226354472],[-74.16548529269454,4.620008198585822],[-74.1660053471075,4.621040454625586],[-74.16600203558124,4.621042432556976],[-74.16546532191376,4.621252256345883],[-74.16542309361938,4.6212776801332325],[-74.16486547824178,4.621613491925132],[-74.16402563859322,4.62193447737684],[-74.16350574828641,4.622335752062895],[-74.16290583424131,4.622696985981179],[-74.16234596406804,4.623017966553448],[-74.1619660553639,4.623258716417581],[-74.1615861488209,4.623700172593715],[-74.16085814333121,4.624368041443233],[-74.15966654804203,4.625786896475233],[-74.15891742483814,4.626608222588686],[-74.15884753829454,4.6266848479402825],[-74.15883008425453,4.626705821666292],[-74.15880172087464,4.626739931766281],[-74.15866405776501,4.626904974417641],[-74.15840977533105,4.627209987358583],[-74.15800642776549,4.6276769351366625],[-74.15796821161462,4.62772114337514],[-74.15749272278259,4.628215209574989],[-74.15703426753362,4.628743456219638],[-74.15664365624116,4.629186533341681],[-74.15623608230788,4.6295954999635],[-74.15584554099928,4.6300214856736375],[-74.15542100573958,4.6304644224385925],[-74.15506438693694,4.631043796560618],[-74.15504742738398,4.631606149677054],[-74.15508325218246,4.631796120426202],[-74.15508929115498,4.631828144549502],[-74.15152415364633,4.6315966725837825],[-74.15064475543244,4.63155022875867],[-74.14996611182346,4.631514387134587],[-74.1488371127702,4.63144069899721],[-74.1487952237224,4.631437963779831],[-74.14870133687089,4.63143189043376],[-74.14840667756096,4.6314166588089165],[-74.14662895284243,4.63132469789889],[-74.14498921892925,4.63116415838067],[-74.14330957957503,4.631003614875965],[-74.14114994773377,4.630762834772895],[-74.13922855166567,4.6306043262151775],[-74.13784500838369,4.630486006149454],[-74.13777406440073,4.630478942715854],[-74.13647251507479,4.630349889302238],[-74.13410969558504,4.630118333974963],[-74.13159443315124,4.629887471718689],[-74.1306817398887,4.629773814559826],[-74.12851708794682,4.62958422979807],[-74.12729031138178,4.629476807362664],[-74.12693214476326,4.629445437706295],[-74.12656954497965,4.629413647407205],[-74.12624924217289,4.629384255412049],[-74.12613199081403,4.6293735031750884],[-74.12241484455649,4.629032124434843],[-74.12369498988153,4.6258952012995564],[-74.12397020419115,4.625243665440507],[-74.12409148279727,4.624963588854939],[-74.12415264730959,4.6248223487698965],[-74.12450254325825,4.6239242069108855],[-74.12458229592278,4.6236434220446085],[-74.12562806557509,4.620233535582145],[-74.12628429872291,4.618093750727439],[-74.12854880655465,4.610709857258655],[-74.128929591202,4.609729864588928],[-74.12906028932082,4.609326547306409],[-74.12908563755883,4.609248378004111],[-74.12926539825094,4.608854530754684],[-74.12972788783748,4.607914653245359],[-74.13025688436193,4.6069574753447],[-74.13731327456395,4.596211642896492],[-74.13743285459384,4.595879443812748],[-74.13756798821936,4.595481710352374],[-74.13776618421497,4.594885111405063],[-74.14043263177967,4.595364255418588],[-74.14108122906038,4.595436583038577],[-74.1418109008439,4.5954637131280265],[-74.14258561533467,4.595472764633371],[-74.14324322283869,4.595400459275766],[-74.14401793753979,4.595337192337581],[-74.14510914104545,4.59513763225641],[-74.14537397152486,4.59506517756671],[-74.1456411252006,4.594990321890691],[-74.14633821362969,4.594927053225547],[-74.146944303515,4.5949560139269465],[-74.14779748731291,4.595015835487459],[-74.14849056355473,4.5950604041264],[-74.14914718328941,4.595132723481299],[-74.14920939661476,4.5951404619695495]]]}},{"type":"Feature","properties":{"OBJECTID":18,"CODIGO_UPL":"UPL14","NOMBRE":"Patio Bonito","ACTO_ADMINISTRATIVO":"DEC","NUMERO_ACTO_ADMINISTRATIVO":"555","FECHA_ACTO_ADMINISTRATIVO":1640736000000,"NORMATIVA":"En el marco del Decreto 555 del 29 de diciembre de 2021 - Por el cual se adopta la revisión general del Plan de Ordenamiento Territorial de Bogotá","VOCACION":"Urbano-Rural","OBSERVACION":"Que mediante Resolución 2050 del 23 de noviembre de 2022 Por la cual se realiza la distribución de las localidades y territorios a cargo de las Subdirecciones de Planeamiento Local","AREA_HA":664.63122347,"SECTOR":"Sector Sur Occidente","ESCALA_CAPTURA":" ","FECHA_CAPTURA":1669161600000,"RESPONSABLE":"553","RULEID":1,"SHAPE_Length":0.09589234264153351,"SHAPE_Area":0.0005412474753211963},"geometry":{"type":"Polygon","coordinates":[[[-74.18012287000158,4.6525646539172385],[-74.18008459899653,4.652609926367404],[-74.18007628320731,4.652619763527127],[-74.17976093327798,4.652815627866971],[-74.17971801449647,4.652842284607573],[-74.17963818398653,4.652891867205028],[-74.17890936577788,4.653263144420578],[-74.17836874621429,4.653576020071455],[-74.17770344466993,4.654061552216774],[-74.17759757494628,4.6541929855272315],[-74.17755038709498,4.65425156796482],[-74.17657697683137,4.654784838282467],[-74.1764680512884,4.654754335569805],[-74.17601633899415,4.654627840731905],[-74.17541570045597,4.654476810430026],[-74.17490894844354,4.654732191841163],[-74.17447878541515,4.655365237587262],[-74.17419527935988,4.655710824528057],[-74.17382024091336,4.656016911464121],[-74.17356107169633,4.656179605898046],[-74.17309187098533,4.656474148111386],[-74.17264332001224,4.656901004653719],[-74.17233638771756,4.65714354162094],[-74.1718347659941,4.657295688849047],[-74.17158575440277,4.657276260146489],[-74.17136043684332,4.657258548926791],[-74.17124385343845,4.657048126554685],[-74.17085927091608,4.656707674191807],[-74.17031385971461,4.656300768787503],[-74.16964395384935,4.655548123137521],[-74.16892790777786,4.654743635959505],[-74.16797820253515,4.65367662509658],[-74.16782842193646,4.653482986744109],[-74.16459623035985,4.649846358122943],[-74.16445356919706,4.649926158699543],[-74.1638165254355,4.649260293659836],[-74.16124461868498,4.646572011969795],[-74.16033866461765,4.64555499870329],[-74.15981923657978,4.644967367997424],[-74.15931944807346,4.644383551205351],[-74.15788814585636,4.642886823923334],[-74.15747718055587,4.6424405030691105],[-74.15717883030197,4.6420190406818165],[-74.15697774773145,4.641714877626498],[-74.15677018865637,4.6412729329508124],[-74.1563149772445,4.640590578393244],[-74.15630665104959,4.640578096785134],[-74.1561897456101,4.640402816419112],[-74.15622549884284,4.640375203917131],[-74.15628722354364,4.640327463737151],[-74.15630051062328,4.640317198313767],[-74.15616187099096,4.640054020083085],[-74.15516067141067,4.638038555562673],[-74.15512219721643,4.63796110570479],[-74.1549767648001,4.637689614591807],[-74.15456337460415,4.636917906615167],[-74.15431645355619,4.636409347805682],[-74.1540695328618,4.635900787094101],[-74.15389450496048,4.635494659214373],[-74.15386160031392,4.635418308425926],[-74.15429046130714,4.63500102847911],[-74.15473817413482,4.634546583100757],[-74.15511993094509,4.634159083776183],[-74.15517194542525,4.634106893663329],[-74.155284696259,4.633966604856994],[-74.15530197940717,4.633945102414316],[-74.15534879056179,4.633835500756447],[-74.15538914169389,4.633742956689446],[-74.15542161033028,4.633668489886418],[-74.15545632756078,4.633449519605904],[-74.15545801928215,4.63343885118087],[-74.15546321940656,4.633313592737409],[-74.15545281614902,4.633177896592258],[-74.15541640589419,4.633010887080616],[-74.15535399014573,4.632786466291634],[-74.1553383847849,4.632687304202761],[-74.15529972667395,4.632576479650027],[-74.15526556592295,4.6324785417341445],[-74.15520314981012,4.63229065402038],[-74.15518234299333,4.632207149287865],[-74.15517193936569,4.6320349200418605],[-74.1551403980481,4.631831463233652],[-74.15508929115498,4.631828144549502],[-74.15508325218246,4.631796120426202],[-74.15504742738398,4.631606149677054],[-74.15506438693694,4.631043796560618],[-74.15542100573958,4.6304644224385925],[-74.15584554099928,4.6300214856736375],[-74.15623608230788,4.6295954999635],[-74.15664365624116,4.629186533341681],[-74.15703426753362,4.628743456219638],[-74.15749272278259,4.628215209574989],[-74.15796821161462,4.62772114337514],[-74.15800642776549,4.6276769351366625],[-74.15840977533105,4.627209987358583],[-74.15866405776501,4.626904974417641],[-74.15880172087464,4.626739931766281],[-74.15883008425453,4.626705821666292],[-74.15884753829454,4.6266848479402825],[-74.15891742483814,4.626608222588686],[-74.15966654804203,4.625786896475233],[-74.16085814333121,4.624368041443233],[-74.1615861488209,4.623700172593715],[-74.1619660553639,4.623258716417581],[-74.16234596406804,4.623017966553448],[-74.16290583424131,4.622696985981179],[-74.16350574828641,4.622335752062895],[-74.16402563859322,4.62193447737684],[-74.16486547824178,4.621613491925132],[-74.16542309361938,4.6212776801332325],[-74.16546532191376,4.621252256345883],[-74.16600203558124,4.621042432556976],[-74.16647063864445,4.621820666382973],[-74.16649273883633,4.621858165185245],[-74.1668116409765,4.622399680393926],[-74.16718135932024,4.623020429625512],[-74.16719937752089,4.623049807445],[-74.16767431854589,4.623872813732817],[-74.16784393897132,4.62406652222171],[-74.1679960329418,4.624195614213022],[-74.16819486117231,4.624348222787489],[-74.16835863792625,4.624453866810313],[-74.16854585139089,4.62457709639574],[-74.16865114325287,4.624694537790333],[-74.16880907892596,4.624829489722629],[-74.16887340939047,4.624952722160003],[-74.16908399637634,4.62534007299837],[-74.16950510250194,4.626252765893128],[-74.16972076181008,4.6268524033387735],[-74.16991804807054,4.627256208015581],[-74.17012321577266,4.627644124564256],[-74.17014327403695,4.627680986932546],[-74.17035203359734,4.628063748068939],[-74.17045860593043,4.628139810876519],[-74.1706471540241,4.628503285043905],[-74.17140440594477,4.629518722485784],[-74.17264422646184,4.631886252684353],[-74.17358745199766,4.633621803391577],[-74.17377502666562,4.63396353220304],[-74.17419205790992,4.634723117683222],[-74.17487641551918,4.636050627812608],[-74.18176176061655,4.648122624850544],[-74.18232127928854,4.649103601120714],[-74.18223128280886,4.649190830356815],[-74.1818394772875,4.64972997022096],[-74.18176689482033,4.6498298474732],[-74.18104801880952,4.650888758911208],[-74.18071634039654,4.651744809486502],[-74.18049022834055,4.652130079509675],[-74.18026684093303,4.652394340497153],[-74.1802081565894,4.6524637620019575],[-74.18012287000158,4.6525646539172385]]]}}]}